{
  "type": "FeatureCollection",
  "features": [
    {
      "type": "Feature",
      "properties": {
        "norad_id": 65729,
        "name": "DRAGONFLY",
        "group": "stations",
        "lat": -51.52887591532056,
        "lon": 75.74850735976271,
        "alt_km": 359.9714785332844,
        "timestamp": "2025-12-07T16:44:02.707356+00:00",
        "meta_object_name": "DRAGONFLY",
        "meta_object_id": "1998-067XH",
        "meta_epoch": "2025-12-06T18:11:12.021792",
        "meta_mean_motion": 15.69539731,
        "meta_eccentricity": 0.00064636,
        "meta_inclination": 51.6244,
        "meta_ra_of_asc_node": 166.34,
        "meta_arg_of_pericenter": 240.1975,
        "meta_mean_anomaly": 119.838,
        "meta_ephemeris_type": 0,
        "meta_classification_type": "U",
        "meta_norad_cat_id": 65729,
        "meta_element_set_no": 999,
        "meta_rev_at_epoch": 1222,
        "meta_bstar": 0.0016006166,
        "meta_mean_motion_dot": 0.00197078,
        "meta_mean_motion_ddot": 0,
        "tle_line1": "1 65729U 98067XH  25340.75777803  .00197078  00000+0  16006-2 0  9993",
        "tle_line2": "2 65729  51.6244 166.3400 0006463 240.1975 119.8380 15.69539731 12226"
      },
      "geometry": {
        "type": "Point",
        "coordinates": [
          75.74850735976271,
          -51.52887591532056
        ]
      }
    },
    {
      "type": "Feature",
      "properties": {
        "norad_id": 65731,
        "name": "1998-067XK",
        "group": "stations",
        "lat": 30.93598117191012,
        "lon": -168.85806542683113,
        "alt_km": 374.3573482368183,
        "timestamp": "2025-12-07T16:44:02.707366+00:00",
        "meta_object_name": "1998-067XK",
        "meta_object_id": "1998-067XK",
        "meta_epoch": "2025-12-06T19:05:46.784832",
        "meta_mean_motion": 15.6431708,
        "meta_eccentricity": 0.00056148,
        "meta_inclination": 51.6275,
        "meta_ra_of_asc_node": 167.356,
        "meta_arg_of_pericenter": 209.7044,
        "meta_mean_anomaly": 150.3633,
        "meta_ephemeris_type": 0,
        "meta_classification_type": "U",
        "meta_norad_cat_id": 65731,
        "meta_element_set_no": 999,
        "meta_rev_at_epoch": 1221,
        "meta_bstar": 0.001226721,
        "meta_mean_motion_dot": 0.00120927,
        "meta_mean_motion_ddot": 0,
        "tle_line1": "1 65731U 98067XK  25340.79568038  .00120927  00000+0  12267-2 0  9992",
        "tle_line2": "2 65731  51.6275 167.3560 0005614 209.7044 150.3633 15.64317080 12212"
      },
      "geometry": {
        "type": "Point",
        "coordinates": [
          -168.85806542683113,
          30.93598117191012
        ]
      }
    },
    {
      "type": "Feature",
      "properties": {
        "norad_id": 65732,
        "name": "RSP-03",
        "group": "stations",
        "lat": -26.99486918967795,
        "lon": 138.38187213413877,
        "alt_km": 372.13010054858387,
        "timestamp": "2025-12-07T16:44:02.707376+00:00",
        "meta_object_name": "RSP-03",
        "meta_object_id": "1998-067XL",
        "meta_epoch": "2025-12-06T19:27:20.778624",
        "meta_mean_motion": 15.66782346,
        "meta_eccentricity": 0.00064361,
        "meta_inclination": 51.6255,
        "meta_ra_of_asc_node": 166.6987,
        "meta_arg_of_pericenter": 212.9717,
        "meta_mean_anomaly": 147.0878,
        "meta_ephemeris_type": 0,
        "meta_classification_type": "U",
        "meta_norad_cat_id": 65732,
        "meta_element_set_no": 999,
        "meta_rev_at_epoch": 1223,
        "meta_bstar": 0.0014177456,
        "meta_mean_motion_dot": 0.00155052,
        "meta_mean_motion_ddot": 0,
        "tle_line1": "1 65732U 98067XL  25340.81065716  .00155052  00000+0  14177-2 0  9990",
        "tle_line2": "2 65732  51.6255 166.6987 0006436 212.9717 147.0878 15.66782346 12231"
      },
      "geometry": {
        "type": "Point",
        "coordinates": [
          138.38187213413877,
          -26.99486918967795
        ]
      }
    },
    {
      "type": "Feature",
      "properties": {
        "norad_id": 65733,
        "name": "GHS-01",
        "group": "stations",
        "lat": 31.31478550638884,
        "lon": -47.74248902292318,
        "alt_km": 349.61120184671836,
        "timestamp": "2025-12-07T16:44:02.707386+00:00",
        "meta_object_name": "GHS-01",
        "meta_object_id": "1998-067XM",
        "meta_epoch": "2025-12-06T18:47:20.289408",
        "meta_mean_motion": 15.71874043,
        "meta_eccentricity": 0.00068988,
        "meta_inclination": 51.6272,
        "meta_ra_of_asc_node": 165.7632,
        "meta_arg_of_pericenter": 241.192,
        "meta_mean_anomaly": 118.8385,
        "meta_ephemeris_type": 0,
        "meta_classification_type": "U",
        "meta_norad_cat_id": 65733,
        "meta_element_set_no": 999,
        "meta_rev_at_epoch": 1224,
        "meta_bstar": 0.00174144,
        "meta_mean_motion_dot": 0.00237688,
        "meta_mean_motion_ddot": 0,
        "tle_line1": "1 65733U 98067XM  25340.78287372  .00237688  00000+0  17414-2 0  9994",
        "tle_line2": "2 65733  51.6272 165.7632 0006898 241.1920 118.8385 15.71874043 12242"
      },
      "geometry": {
        "type": "Point",
        "coordinates": [
          -47.74248902292318,
          31.31478550638884
        ]
      }
    },
    {
      "type": "Feature",
      "properties": {
        "norad_id": 65941,
        "name": "YOTSUBA-KULOVER",
        "group": "stations",
        "lat": -51.50755351045709,
        "lon": 80.15475727445849,
        "alt_km": 395.89501570640186,
        "timestamp": "2025-12-07T16:44:02.707397+00:00",
        "meta_object_name": "YOTSUBA-KULOVER",
        "meta_object_id": "1998-067XN",
        "meta_epoch": "2025-12-06T19:33:42.622560",
        "meta_mean_motion": 15.58441577,
        "meta_eccentricity": 0.00019681,
        "meta_inclination": 51.6278,
        "meta_ra_of_asc_node": 169.7328,
        "meta_arg_of_pericenter": 197.1439,
        "meta_mean_anomaly": 162.9487,
        "meta_ephemeris_type": 0,
        "meta_classification_type": "U",
        "meta_norad_cat_id": 65941,
        "meta_element_set_no": 999,
        "meta_rev_at_epoch": 893,
        "meta_bstar": 0.0011638994,
        "meta_mean_motion_dot": 0.00090951,
        "meta_mean_motion_ddot": 0,
        "tle_line1": "1 65941U 98067XN  25340.81507665  .00090951  00000+0  11639-2 0  9992",
        "tle_line2": "2 65941  51.6278 169.7328 0001968 197.1439 162.9487 15.58441577  8934"
      },
      "geometry": {
        "type": "Point",
        "coordinates": [
          80.15475727445849,
          -51.50755351045709
        ]
      }
    },
    {
      "type": "Feature",
      "properties": {
        "norad_id": 65942,
        "name": "BOTAN",
        "group": "stations",
        "lat": -3.0124320046722097,
        "lon": -12.871191075284754,
        "alt_km": 381.6693189759644,
        "timestamp": "2025-12-07T16:44:02.707407+00:00",
        "meta_object_name": "BOTAN",
        "meta_object_id": "1998-067XP",
        "meta_epoch": "2025-12-06T18:26:46.199328",
        "meta_mean_motion": 15.61316825,
        "meta_eccentricity": 0.00039822,
        "meta_inclination": 51.627,
        "meta_ra_of_asc_node": 169.4226,
        "meta_arg_of_pericenter": 191.5132,
        "meta_mean_anomaly": 168.5771,
        "meta_ephemeris_type": 0,
        "meta_classification_type": "U",
        "meta_norad_cat_id": 65942,
        "meta_element_set_no": 999,
        "meta_rev_at_epoch": 893,
        "meta_bstar": 0.001480583,
        "meta_mean_motion_dot": 0.00129965,
        "meta_mean_motion_ddot": 0,
        "tle_line1": "1 65942U 98067XP  25340.76859027  .00129965  00000+0  14806-2 0  9996",
        "tle_line2": "2 65942  51.6270 169.4226 0003982 191.5132 168.5771 15.61316825  8936"
      },
      "geometry": {
        "type": "Point",
        "coordinates": [
          -12.871191075284754,
          -3.0124320046722097
        ]
      }
    },
    {
      "type": "Feature",
      "properties": {
        "norad_id": 65943,
        "name": "E-KAGAKU-1",
        "group": "stations",
        "lat": -51.49134678901136,
        "lon": 80.55941738604311,
        "alt_km": 396.7507592300235,
        "timestamp": "2025-12-07T16:44:02.707417+00:00",
        "meta_object_name": "E-KAGAKU-1",
        "meta_object_id": "1998-067XQ",
        "meta_epoch": "2025-12-06T18:01:16.505472",
        "meta_mean_motion": 15.5838918,
        "meta_eccentricity": 0.00030246,
        "meta_inclination": 51.6289,
        "meta_ra_of_asc_node": 170.0575,
        "meta_arg_of_pericenter": 170.5434,
        "meta_mean_anomaly": 189.5616,
        "meta_ephemeris_type": 0,
        "meta_classification_type": "U",
        "meta_norad_cat_id": 65943,
        "meta_element_set_no": 999,
        "meta_rev_at_epoch": 892,
        "meta_bstar": 0.0011230983,
        "meta_mean_motion_dot": 0.00087541,
        "meta_mean_motion_ddot": 0,
        "tle_line1": "1 65943U 98067XQ  25340.75088548  .00087541  00000+0  11231-2 0  9990",
        "tle_line2": "2 65943  51.6289 170.0575 0003024 170.5434 189.5616 15.58389180  8921"
      },
      "geometry": {
        "type": "Point",
        "coordinates": [
          80.55941738604311,
          -51.49134678901136
        ]
      }
    }
  ]
}